ONEWEB-0377             
1 49303U 21090AA  25331.87582141 -.00000044  00000+0 -13974-3 0  9997
2 49303  87.9190 314.5830 0001642  82.8898 277.2422 13.20772484203947
ONEWEB-0378             
1 49304U 21090AB  25331.89790391  .00000035  00000+0  54459-4 0  9990
2 49304  87.9187 314.5934 0001775  90.4806 269.6530 13.20768793203213
ONEWEB-0379             
1 49305U 21090AC  25331.70631785 -.00000016  00000+0 -76627-4 0  9994
2 49305  87.8988 329.8473 0001869  92.5327 267.6017 13.14503797201090
ONEWEB-0380             
1 49306U 21090AD  25331.58826149 -.00000010  00000+0 -56805-4 0  9991
2 49306  87.9212 345.0880 0001522  91.4189 268.7118 13.19723438199837
ONEWEB-0381             
1 49307U 21090AE  25331.87251305 -.00000016  00000+0 -72329-4 0  9995
2 49307  87.9184 314.5871 0001630  92.8400 267.2920 13.20773737203254
ONEWEB-0382             
1 49308U 21090AF  25331.85990385 -.00000106  00000+0 -29321-3 0  9995
2 49308  87.9195 314.5847 0001740  95.8072 264.3260 13.20772059203240
ONEWEB-0383             
1 49309U 21090AG  25331.69997206  .00000095  00000+0  22278-3 0  9996
2 49309  87.8989 329.8329 0001851  94.7224 265.4117 13.14502403201120
ONEWEB-0384             
1 49310U 21090AH  25331.70210649  .00000109  00000+0  23504-3 0  9998
2 49310  87.9202 314.6512 0001790 101.6480 258.4854 13.20797722203232
ONEWEB-0385             
1 49311U 21090AJ  25331.85199723 -.00000034  00000+0 -11632-3 0  9992
2 49311  87.9186 314.5925 0001783  90.2883 269.8455 13.20771604203226
ONEWEB-0386             
1 49312U 21090AK  25331.86935617 -.00000071  00000+0 -20635-3 0  9998
2 49312  87.9192 314.5718 0001824  95.1358 264.9984 13.20773002203240
ONEWEB-0387             
1 49313U 21090AL  25331.70203568  .00002524  00000+0  61723-2 0  9990
2 49313  87.9187 314.6516 0001616  87.1291 273.0028 13.20797957203221
ONEWEB-0388             
1 49314U 21090AM  25331.73515340 -.00000046  00000+0 -14825-3 0  9999
2 49314  87.9194 345.0626 0001778  96.5097 263.6238 13.19727621199846
ONEWEB-0389             
1 50469U 21132A   25331.74004503 -.00000043  00000+0 -14434-3 0  9997
2 50469  87.9133  45.9287 0001611 115.8299 244.2999 13.17649902191558
ONEWEB-0390             
1 50470U 21132B   25331.96954858  .00000008  00000+0 -12350-4 0  9996
2 50470  87.9126  45.8866 0001639  93.6444 266.4876 13.17647165191581
ONEWEB-0391             
1 50471U 21132C   25331.97123320 -.00000042  00000+0 -14169-3 0  9998
2 50471  87.9124  45.8958 0001035 121.5971 238.5262 13.17647366191580
ONEWEB-0392             
1 50472U 21132D   25331.92567010 -.00000158  00000+0 -44005-3 0  9992
2 50472  87.9134  45.8565 0001505 111.7065 248.4227 13.17645888191615
