[{"OBJECT_NAME":"ONEWEB-0377","OBJECT_ID":"2021-090AA","EPOCH":"2025-11-27T21:01:10.969824","MEAN_MOTION":13.20772484,"ECCENTRICITY":0.00016425,"INCLINATION":87.919,"RA_OF_ASC_NODE":314.583,"ARG_OF_PERICENTER":82.8898,"MEAN_ANOMALY":277.2422,"EPHEMERIS_TYPE":0,"CLASSIFICATION_TYPE":"U","NORAD_CAT_ID":49303,"ELEMENT_SET_NO":999,"REV_AT_EPOCH":20394,"BSTAR":-0.00013973814,"MEAN_MOTION_DOT":-4.4e-7,"MEAN_MOTION_DDOT":0},{"OBJECT_NAME":"ONEWEB-0378","OBJECT_ID":"2021-090AB","EPOCH":"2025-11-27T21:32:58.897824","MEAN_MOTION":13.20768793,"ECCENTRICITY":0.00017753,"INCLINATION":87.9187,"RA_OF_ASC_NODE":314.5934,"ARG_OF_PERICENTER":90.4806,"MEAN_ANOMALY":269.653,"EPHEMERIS_TYPE":0,"CLASSIFICATION_TYPE":"U","NORAD_CAT_ID":49304,"ELEMENT_SET_NO":999,"REV_AT_EPOCH":20321,"BSTAR":5.4458521e-5,"MEAN_MOTION_DOT":3.5e-7,"MEAN_MOTION_DDOT":0},{"OBJECT_NAME":"ONEWEB-0379","OBJECT_ID":"2021-090AC","EPOCH":"2025-11-27T16:57:05.862240","MEAN_MOTION":13.14503797,"ECCENTRICITY":0.00018696,"INCLINATION":87.8988,"RA_OF_ASC_NODE":329.8473,"ARG_OF_PERICENTER":92.5327,"MEAN_ANOMALY":267.6017,"EPHEMERIS_TYPE":0,"CLASSIFICATION_TYPE":"U","NORAD_CAT_ID":49305,"ELEMENT_SET_NO":999,"REV_AT_EPOCH":20109,"BSTAR":-7.662696e-5,"MEAN_MOTION_DOT":-1.6e-7,"MEAN_MOTION_DDOT":0},{"OBJECT_NAME":"ONEWEB-0380","OBJECT_ID":"2021-090AD","EPOCH":"2025-11-27T14:07:05.792736","MEAN_MOTION":13.19723438,"ECCENTRICITY":0.00015227,"INCLINATION":87.9212,"RA_OF_ASC_NODE":345.088,"ARG_OF_PERICENTER":91.4189,"MEAN_ANOMALY":268.7118,"EPHEMERIS_TYPE":0,"CLASSIFICATION_TYPE":"U","NORAD_CAT_ID":49306,"ELEMENT_SET_NO":999,"REV_AT_EPOCH":19983,"BSTAR":-5.6805011e-5,"MEAN_MOTION_DOT":-1.0e-7,"MEAN_MOTION_DDOT":0},{"OBJECT_NAME":"ONEWEB-0381","OBJECT_ID":"2021-090AE","EPOCH":"2025-11-27T20:56:25.127520","MEAN_MOTION":13.20773737,"ECCENTRICITY":0.00016303,"INCLINATION":87.9184,"RA_OF_ASC_NODE":314.5871,"ARG_OF_PERICENTER":92.84,"MEAN_ANOMALY":267.292,"EPHEMERIS_TYPE":0,"CLASSIFICATION_TYPE":"U","NORAD_CAT_ID":49307,"ELEMENT_SET_NO":999,"REV_AT_EPOCH":20325,"BSTAR":-7.2328876e-5,"MEAN_MOTION_DOT":-1.6e-7,"MEAN_MOTION_DDOT":0},{"OBJECT_NAME":"ONEWEB-0382","OBJECT_ID":"2021-090AF","EPOCH":"2025-11-27T20:38:15.692640","MEAN_MOTION":13.20772059,"ECCENTRICITY":0.00017407,"INCLINATION":87.9195,"RA_OF_ASC_NODE":314.5847,"ARG_OF_PERICENTER":95.8072,"MEAN_ANOMALY":264.326,"EPHEMERIS_TYPE":0,"CLASSIFICATION_TYPE":"U","NORAD_CAT_ID":49308,"ELEMENT_SET_NO":999,"REV_AT_EPOCH":20324,"BSTAR":-0.0002932098,"MEAN_MOTION_DOT":-1.06e-6,"MEAN_MOTION_DDOT":0},{"OBJECT_NAME":"ONEWEB-0383","OBJECT_ID":"2021-090AG","EPOCH":"2025-11-27T16:47:57.585984","MEAN_MOTION":13.14502403,"ECCENTRICITY":0.00018514,"INCLINATION":87.8989,"RA_OF_ASC_NODE":329.8329,"ARG_OF_PERICENTER":94.7224,"MEAN_ANOMALY":265.4117,"EPHEMERIS_TYPE":0,"CLASSIFICATION_TYPE":"U","NORAD_CAT_ID":49309,"ELEMENT_SET_NO":999,"REV_AT_EPOCH":20112,"BSTAR":0.00022277756,"MEAN_MOTION_DOT":9.5e-7,"MEAN_MOTION_DDOT":0},{"OBJECT_NAME":"ONEWEB-0384","OBJECT_ID":"2021-090AH","EPOCH":"2025-11-27T16:51:02.000736","MEAN_MOTION":13.20797722,"ECCENTRICITY":0.00017906,"INCLINATION":87.9202,"RA_OF_ASC_NODE":314.6512,"ARG_OF_PERICENTER":101.648,"MEAN_ANOMALY":258.4854,"EPHEMERIS_TYPE":0,"CLASSIFICATION_TYPE":"U","NORAD_CAT_ID":49310,"ELEMENT_SET_NO":999,"REV_AT_EPOCH":20323,"BSTAR":0.00023504385,"MEAN_MOTION_DOT":1.09e-6,"MEAN_MOTION_DDOT":0},{"OBJECT_NAME":"ONEWEB-0385","OBJECT_ID":"2021-090AJ","EPOCH":"2025-11-27T20:26:52.560672","MEAN_MOTION":13.20771604,"ECCENTRICITY":0.00017838,"INCLINATION":87.9186,"RA_OF_ASC_NODE":314.5925,"ARG_OF_PERICENTER":90.2883,"MEAN_ANOMALY":269.8455,"EPHEMERIS_TYPE":0,"CLASSIFICATION_TYPE":"U","NORAD_CAT_ID":49311,"ELEMENT_SET_NO":999,"REV_AT_EPOCH":20322,"BSTAR":-0.00011632196,"MEAN_MOTION_DOT":-3.4e-7,"MEAN_MOTION_DDOT":0},{"OBJECT_NAME":"ONEWEB-0386","OBJECT_ID":"2021-090AK","EPOCH":"2025-11-27T20:51:52.373088","MEAN_MOTION":13.20773002,"ECCENTRICITY":0.00018242,"INCLINATION":87.9192,"RA_OF_ASC_NODE":314.5718,"ARG_OF_PERICENTER":95.1358,"MEAN_ANOMALY":264.9984,"EPHEMERIS_TYPE":0,"CLASSIFICATION_TYPE":"U","NORAD_CAT_ID":49312,"ELEMENT_SET_NO":999,"REV_AT_EPOCH":20324,"BSTAR":-0.00020634718,"MEAN_MOTION_DOT":-7.1e-7,"MEAN_MOTION_DDOT":0},{"OBJECT_NAME":"ONEWEB-0387","OBJECT_ID":"2021-090AL","EPOCH":"2025-11-27T16:50:55.882752","MEAN_MOTION":13.20797957,"ECCENTRICITY":0.00016161,"INCLINATION":87.9187,"RA_OF_ASC_NODE":314.6516,"ARG_OF_PERICENTER":87.1291,"MEAN_ANOMALY":273.0028,"EPHEMERIS_TYPE":0,"CLASSIFICATION_TYPE":"U","NORAD_CAT_ID":49313,"ELEMENT_SET_NO":999,"REV_AT_EPOCH":20322,"BSTAR":0.006172331,"MEAN_MOTION_DOT":2.524e-5,"MEAN_MOTION_DDOT":0},{"OBJECT_NAME":"ONEWEB-0388","OBJECT_ID":"2021-090AM","EPOCH":"2025-11-27T17:38:37.253760","MEAN_MOTION":13.19727621,"ECCENTRICITY":0.00017786,"INCLINATION":87.9194,"RA_OF_ASC_NODE":345.0626,"ARG_OF_PERICENTER":96.5097,"MEAN_ANOMALY":263.6238,"EPHEMERIS_TYPE":0,"CLASSIFICATION_TYPE":"U","NORAD_CAT_ID":49314,"ELEMENT_SET_NO":999,"REV_AT_EPOCH":19984,"BSTAR":-0.00014824887,"MEAN_MOTION_DOT":-4.6e-7,"MEAN_MOTION_DDOT":0},{"OBJECT_NAME":"ONEWEB-0389","OBJECT_ID":"2021-132A","EPOCH":"2025-11-27T17:45:39.890592","MEAN_MOTION":13.17649902,"ECCENTRICITY":0.00016118,"INCLINATION":87.9133,"RA_OF_ASC_NODE":45.9287,"ARG_OF_PERICENTER":115.8299,"MEAN_ANOMALY":244.2999,"EPHEMERIS_TYPE":0,"CLASSIFICATION_TYPE":"U","NORAD_CAT_ID":50469,"ELEMENT_SET_NO":999,"REV_AT_EPOCH":19155,"BSTAR":-0.00014434202,"MEAN_MOTION_DOT":-4.3e-7,"MEAN_MOTION_DDOT":0},{"OBJECT_NAME":"ONEWEB-0390","OBJECT_ID":"2021-132B","EPOCH":"2025-11-27T23:16:08.997312","MEAN_MOTION":13.17647165,"ECCENTRICITY":0.00016396,"INCLINATION":87.9126,"RA_OF_ASC_NODE":45.8866,"ARG_OF_PERICENTER":93.6444,"MEAN_ANOMALY":266.4876,"EPHEMERIS_TYPE":0,"CLASSIFICATION_TYPE":"U","NORAD_CAT_ID":50470,"ELEMENT_SET_NO":999,"REV_AT_EPOCH":19158,"BSTAR":-1.234968e-5,"MEAN_MOTION_DOT":8.0e-8,"MEAN_MOTION_DDOT":0},{"OBJECT_NAME":"ONEWEB-0391","OBJECT_ID":"2021-132C","EPOCH":"2025-11-27T23:18:34.548480","MEAN_MOTION":13.17647366,"ECCENTRICITY":0.00010359,"INCLINATION":87.9124,"RA_OF_ASC_NODE":45.8958,"ARG_OF_PERICENTER":121.5971,"MEAN_ANOMALY":238.5262,"EPHEMERIS_TYPE":0,"CLASSIFICATION_TYPE":"U","NORAD_CAT_ID":50471,"ELEMENT_SET_NO":999,"REV_AT_EPOCH":19158,"BSTAR":-0.00014168936,"MEAN_MOTION_DOT":-4.2e-7,"MEAN_MOTION_DDOT":0},{"OBJECT_NAME":"ONEWEB-0392","OBJECT_ID":"2021-132D","EPOCH":"2025-11-27T22:12:57.896640","MEAN_MOTION":13.17645888,"ECCENTRICITY":0.00015058,"INCLINATION":87.9134,"RA_OF_ASC_NODE":45.8565,"ARG_OF_PERICENTER":111.7065,"MEAN_ANOMALY":248.4227,"EPHEMERIS_TYPE":0,"CLASSIFICATION_TYPE":"U","NORAD_CAT_ID":50472,"ELEMENT_SET_NO":999,"REV_AT_EPOCH":19161,"BSTAR":-0.00044005215,"MEAN_MOTION_DOT":-1.58e-6,"MEAN_MOTION_DDOT":0}]
